{"type": "FeatureCollection", "features": [ {"type": "Feature", "properties": {"norad_id": 66460, "name": "STARLINK-35424", "group": "last-30-days", "lat": -42.25458703039917, "lon": 37.36516331083396, "alt_km": 414.96725961229276, "timestamp": "2025-12-05T07:38:17.627335+00:00", "meta": {"OBJECT_NAME": "STARLINK-35424", "OBJECT_ID": "2025-262E", "EPOCH": "2025-12-04T18:00:02.000160", "MEAN_MOTION": 15.53901383, "ECCENTRICITY": 0.0001572, "INCLINATION": 42.9994, "RA_OF_ASC_NODE": 117.8471, "ARG_OF_PERICENTER": 279.7858, "MEAN_ANOMALY": 59.8344, "EPHEMERIS_TYPE": 0, "CLASSIFICATION_TYPE": "U", "NORAD_CAT_ID": 66460, "ELEMENT_SET_NO": 999, "REV_AT_EPOCH": 435, "BSTAR": -0.036008, "MEAN_MOTION_DOT": -0.02115255, "MEAN_MOTION_DDOT": 0}, "tle": {"line1": "1 66460U 25262E   25338.75002315 -.02115255  00000+0 -36008-1 0  9993", "line2": "2 66460  42.9994 117.8471 0001572 279.7858  59.8344 15.53901383  4354"}}, "geometry": {"type": "Point", "coordinates": [37.36516331083396, -42.25458703039917]}}, {"type": "Feature", "properties": {"norad_id": 66461, "name": "STARLINK-35132", "group": "last-30-days", "lat": -41.93585650599245, "lon": 39.90518050231588, "alt_km": 415.0007283207615, "timestamp": "2025-12-05T07:38:17.627346+00:00", "meta": {"OBJECT_NAME": "STARLINK-35132", "OBJECT_ID": "2025-262F", "EPOCH": "2025-12-04T18:00:02.000160", "MEAN_MOTION": 15.53907237, "ECCENTRICITY": 0.0001535, "INCLINATION": 42.9993, "RA_OF_ASC_NODE": 117.8421, "ARG_OF_PERICENTER": 272.9476, "MEAN_ANOMALY": 68.5903, "EPHEMERIS_TYPE": 0, "CLASSIFICATION_TYPE": "U", "NORAD_CAT_ID": 66461, "ELEMENT_SET_NO": 999, "REV_AT_EPOCH": 435, "BSTAR": -0.036218, "MEAN_MOTION_DOT": -0.02126597, "MEAN_MOTION_DDOT": 0}, "tle": {"line1": "1 66461U 25262F   25338.75002315 -.02126597  00000+0 -36218-1 0  9998", "line2": "2 66461  42.9993 117.8421 0001535 272.9476  68.5903 15.53907237  4351"}}, "geometry": {"type": "Point", "coordinates": [39.90518050231588, -41.93585650599245]}}, {"type": "Feature", "properties": {"norad_id": 66462, "name": "STARLINK-35499", "group": "last-30-days", "lat": -41.56342655130992, "lon": 42.40600567596538, "alt_km": 414.93153926392915, "timestamp": "2025-12-05T07:38:17.627356+00:00", "meta": {"OBJECT_NAME": "STARLINK-35499", "OBJECT_ID": "2025-262G", "EPOCH": "2025-12-04T18:00:02.000160", "MEAN_MOTION": 15.53917224, "ECCENTRICITY": 0.0001651, "INCLINATION": 42.9992, "RA_OF_ASC_NODE": 117.8373, "ARG_OF_PERICENTER": 276.2528, "MEAN_ANOMALY": 67.1966, "EPHEMERIS_TYPE": 0, "CLASSIFICATION_TYPE": "U", "NORAD_CAT_ID": 66462, "ELEMENT_SET_NO": 999, "REV_AT_EPOCH": 435, "BSTAR": -0.036512, "MEAN_MOTION_DOT": -0.02142679, "MEAN_MOTION_DDOT": 0}, "tle": {"line1": "1 66462U 25262G   25338.75002315 -.02142679  00000+0 -36512-1 0  9995", "line2": "2 66462  42.9992 117.8373 0001651 276.2528  67.1966 15.53917224  4352"}}, "geometry": {"type": "Point", "coordinates": [42.40600567596538, -41.56342655130992]}}, {"type": "Feature", "properties": {"norad_id": 66463, "name": "STARLINK-35463", "group": "last-30-days", "lat": -40.65341563053257, "lon": 47.340972844640376, "alt_km": 414.8988291900105, "timestamp": "2025-12-05T07:38:17.627368+00:00", "meta": {"OBJECT_NAME": "STARLINK-35463", "OBJECT_ID": "2025-262H", "EPOCH": "2025-12-04T18:00:02.000160", "MEAN_MOTION": 15.53910115, "ECCENTRICITY": 0.0001643, "INCLINATION": 42.9996, "RA_OF_ASC_NODE": 117.8275, "ARG_OF_PERICENTER": 274.0915, "MEAN_ANOMALY": 73.1968, "EPHEMERIS_TYPE": 0, "CLASSIFICATION_TYPE": "U", "NORAD_CAT_ID": 66463, "ELEMENT_SET_NO": 999, "REV_AT_EPOCH": 435, "BSTAR": -0.036334, "MEAN_MOTION_DOT": -0.02132909, "MEAN_MOTION_DDOT": 0}, "tle": {"line1": "1 66463U 25262H   25338.75002315 -.02132909  00000+0 -36334-1 0  9993", "line2": "2 66463  42.9996 117.8275 0001643 274.0915  73.1968 15.53910115  4356"}}, "geometry": {"type": "Point", "coordinates": [47.340972844640376, -40.65341563053257]}}, {"type": "Feature", "properties": {"norad_id": 66464, "name": "STARLINK-35435", "group": "last-30-days", "lat": -41.13436067244802, "lon": 44.89431214769226, "alt_km": 414.9612888257334, "timestamp": "2025-12-05T07:38:17.627378+00:00", "meta": {"OBJECT_NAME": "STARLINK-35435", "OBJECT_ID": "2025-262J", "EPOCH": "2025-12-04T18:00:02.000160", "MEAN_MOTION": 15.53909686, "ECCENTRICITY": 0.0001559, "INCLINATION": 42.9996, "RA_OF_ASC_NODE": 117.8323, "ARG_OF_PERICENTER": 275.3683, "MEAN_ANOMALY": 70.0022, "EPHEMERIS_TYPE": 0, "CLASSIFICATION_TYPE": "U", "NORAD_CAT_ID": 66464, "ELEMENT_SET_NO": 999, "REV_AT_EPOCH": 435, "BSTAR": -0.036295, "MEAN_MOTION_DOT": -0.02130761, "MEAN_MOTION_DDOT": 0}, "tle": {"line1": "1 66464U 25262J   25338.75002315 -.02130761  00000+0 -36295-1 0  9994", "line2": "2 66464  42.9996 117.8323 0001559 275.3683  70.0022 15.53909686  4351"}}, "geometry": {"type": "Point", "coordinates": [44.89431214769226, -41.13436067244802]}}, {"type": "Feature", "properties": {"norad_id": 66465, "name": "STARLINK-35448", "group": "last-30-days", "lat": -39.54158254224197, "lon": 52.116311607202455, "alt_km": 414.9249706790579, "timestamp": "2025-12-05T07:38:17.627387+00:00", "meta": {"OBJECT_NAME": "STARLINK-35448", "OBJECT_ID": "2025-262K", "EPOCH": "2025-12-04T18:00:02.000160", "MEAN_MOTION": 15.539165, "ECCENTRICITY": 0.0001545, "INCLINATION": 42.9998, "RA_OF_ASC_NODE": 117.8182, "ARG_OF_PERICENTER": 278.9498, "MEAN_ANOMALY": 72.1684, "EPHEMERIS_TYPE": 0, "CLASSIFICATION_TYPE": "U", "NORAD_CAT_ID": 66465, "ELEMENT_SET_NO": 999, "REV_AT_EPOCH": 435, "BSTAR": -0.036487, "MEAN_MOTION_DOT": -0.02141243, "MEAN_MOTION_DDOT": 0}, "tle": {"line1": "1 66465U 25262K   25338.75002315 -.02141243  00000+0 -36487-1 0  9995", "line2": "2 66465  42.9998 117.8182 0001545 278.9498  72.1684 15.53916500  4355"}}, "geometry": {"type": "Point", "coordinates": [52.116311607202455, -39.54158254224197]}}, {"type": "Feature", "properties": {"norad_id": 66466, "name": "STARLINK-35388", "group": "last-30-days", "lat": -38.911223079155306, "lon": 54.44834239518572, "alt_km": 414.8820531215324, "timestamp": "2025-12-05T07:38:17.627398+00:00", "meta": {"OBJECT_NAME": "STARLINK-35388", "OBJECT_ID": "2025-262L", "EPOCH": "2025-12-04T18:00:02.000160", "MEAN_MOTION": 15.53913169, "ECCENTRICITY": 0.0001574, "INCLINATION": 42.9993, "RA_OF_ASC_NODE": 117.812, "ARG_OF_PERICENTER": 277.1821, "MEAN_ANOMALY": 75.8548, "EPHEMERIS_TYPE": 0, "CLASSIFICATION_TYPE": "U", "NORAD_CAT_ID": 66466, "ELEMENT_SET_NO": 999, "REV_AT_EPOCH": 435, "BSTAR": -0.036395, "MEAN_MOTION_DOT": -0.02136244, "MEAN_MOTION_DDOT": 0}, "tle": {"line1": "1 66466U 25262L   25338.75002315 -.02136244  00000+0 -36395-1 0  9999", "line2": "2 66466  42.9993 117.8120 0001574 277.1821  75.8548 15.53913169  4353"}}, "geometry": {"type": "Point", "coordinates": [54.44834239518572, -38.911223079155306]}}, {"type": "Feature", "properties": {"norad_id": 66467, "name": "STARLINK-35682", "group": "last-30-days", "lat": -40.12207492587939, "lon": 49.74822273827809, "alt_km": 414.91518949763486, "timestamp": "2025-12-05T07:38:17.627415+00:00", "meta": {"OBJECT_NAME": "STARLINK-35682", "OBJECT_ID": "2025-262M", "EPOCH": "2025-12-04T18:00:02.000160", "MEAN_MOTION": 15.53912303, "ECCENTRICITY": 0.0001592, "INCLINATION": 42.9997, "RA_OF_ASC_NODE": 117.8227, "ARG_OF_PERICENTER": 276.4315, "MEAN_ANOMALY": 72.773, "EPHEMERIS_TYPE": 0, "CLASSIFICATION_TYPE": "U", "NORAD_CAT_ID": 66467, "ELEMENT_SET_NO": 999, "REV_AT_EPOCH": 435, "BSTAR": -0.036399, "MEAN_MOTION_DOT": -0.02136381, "MEAN_MOTION_DDOT": 0}, "tle": {"line1": "1 66467U 25262M   25338.75002315 -.02136381  00000+0 -36399-1 0  9996", "line2": "2 66467  42.9997 117.8227 0001592 276.4315  72.7730 15.53912303  4354"}}, "geometry": {"type": "Point", "coordinates": [49.74822273827809, -40.12207492587939]}}, {"type": "Feature", "properties": {"norad_id": 66468, "name": "STARLINK-35331", "group": "last-30-days", "lat": -38.23733271450987, "lon": 56.7360269179232, "alt_km": 414.77721281712456, "timestamp": "2025-12-05T07:38:17.627426+00:00", "meta": {"OBJECT_NAME": "STARLINK-35331", "OBJECT_ID": "2025-262N", "EPOCH": "2025-12-04T18:00:02.000160", "MEAN_MOTION": 15.53914733, "ECCENTRICITY": 0.0001685, "INCLINATION": 42.9998, "RA_OF_ASC_NODE": 117.8082, "ARG_OF_PERICENTER": 278.5449, "MEAN_ANOMALY": 76.4077, "EPHEMERIS_TYPE": 0, "CLASSIFICATION_TYPE": "U", "NORAD_CAT_ID": 66468, "ELEMENT_SET_NO": 999, "REV_AT_EPOCH": 435, "BSTAR": -0.036427, "MEAN_MOTION_DOT": -0.02138104, "MEAN_MOTION_DDOT": 0}, "tle": {"line1": "1 66468U 25262N   25338.75002315 -.02138104  00000+0 -36427-1 0  9994", "line2": "2 66468  42.9998 117.8082 0001685 278.5449  76.4077 15.53914733  4353"}}, "geometry": {"type": "Point", "coordinates": [56.7360269179232, -38.23733271450987]}}, {"type": "Feature", "properties": {"norad_id": 66469, "name": "STARLINK-35451", "group": "last-30-days", "lat": -35.9594417651408, "lon": 63.33173982980876, "alt_km": 414.6083107314871, "timestamp": "2025-12-05T07:38:17.627436+00:00", "meta": {"OBJECT_NAME": "STARLINK-35451", "OBJECT_ID": "2025-262P", "EPOCH": "2025-12-04T18:00:02.000160", "MEAN_MOTION": 15.53907943, "ECCENTRICITY": 0.0001768, "INCLINATION": 42.9993, "RA_OF_ASC_NODE": 117.7931, "ARG_OF_PERICENTER": 282.7019, "MEAN_ANOMALY": 78.0053, "EPHEMERIS_TYPE": 0, "CLASSIFICATION_TYPE": "U", "NORAD_CAT_ID": 66469, "ELEMENT_SET_NO": 999, "REV_AT_EPOCH": 435, "BSTAR": -0.036317, "MEAN_MOTION_DOT": -0.02131963, "MEAN_MOTION_DDOT": 0}, "tle": {"line1": "1 66469U 25262P   25338.75002315 -.02131963  00000+0 -36317-1 0  9999", "line2": "2 66469  42.9993 117.7931 0001768 282.7019  78.0053 15.53907943  4350"}}, "geometry": {"type": "Point", "coordinates": [63.33173982980876, -35.9594417651408]}}]}